{
  "type": "FeatureCollection",
  "features": [
    {
      "type": "Feature",
      "properties": {
        "norad_id": 66501,
        "name": "STARLINK-35897",
        "group": "last-30-days",
        "lat": -20.139041327376965,
        "lon": 147.98254359467006,
        "alt_km": 373.6152032442633,
        "timestamp": "2025-12-04T21:36:14.652316+00:00",
        "meta_object_name": "STARLINK-35897",
        "meta_object_id": "2025-263S",
        "meta_epoch": "2025-12-04T14:00:01.000224",
        "meta_mean_motion": 15.66780353,
        "meta_eccentricity": 0.00016851,
        "meta_inclination": 42.999,
        "meta_ra_of_asc_node": 173.0558,
        "meta_arg_of_pericenter": 263.6885,
        "meta_mean_anomaly": 77.6567,
        "meta_ephemeris_type": 0,
        "meta_classification_type": "U",
        "meta_norad_cat_id": 66501,
        "meta_element_set_no": 999,
        "meta_rev_at_epoch": 432,
        "meta_bstar": -0.021136057,
        "meta_mean_motion_dot": -0.02017042,
        "meta_mean_motion_ddot": 0,
        "tle_line1": "1 66501U 25263S   25338.58334491 -.02017042  00000+0 -21136-1 0  9995",
        "tle_line2": "2 66501  42.9990 173.0558 0001685 263.6885  77.6567 15.66780353  4321"
      },
      "geometry": {
        "type": "Point",
        "coordinates": [
          147.98254359467006,
          -20.139041327376965
        ]
      }
    },
    {
      "type": "Feature",
      "properties": {
        "norad_id": 66502,
        "name": "STARLINK-35922",
        "group": "last-30-days",
        "lat": -16.477667673579752,
        "lon": 152.63610388204634,
        "alt_km": 373.4312587792474,
        "timestamp": "2025-12-04T21:36:14.652331+00:00",
        "meta_object_name": "STARLINK-35922",
        "meta_object_id": "2025-263T",
        "meta_epoch": "2025-12-04T14:00:01.000224",
        "meta_mean_motion": 15.66775505,
        "meta_eccentricity": 0.00017312,
        "meta_inclination": 42.999,
        "meta_ra_of_asc_node": 173.0412,
        "meta_arg_of_pericenter": 262.3206,
        "meta_mean_anomaly": 84.7769,
        "meta_ephemeris_type": 0,
        "meta_classification_type": "U",
        "meta_norad_cat_id": 66502,
        "meta_element_set_no": 999,
        "meta_rev_at_epoch": 432,
        "meta_bstar": -0.021057766,
        "meta_mean_motion_dot": -0.02010169,
        "meta_mean_motion_ddot": 0,
        "tle_line1": "1 66502U 25263T   25338.58334491 -.02010169  00000+0 -21058-1 0  9992",
        "tle_line2": "2 66502  42.9990 173.0412 0001731 262.3206  84.7769 15.66775505  4322"
      },
      "geometry": {
        "type": "Point",
        "coordinates": [
          152.63610388204634,
          -16.477667673579752
        ]
      }
    },
    {
      "type": "Feature",
      "properties": {
        "norad_id": 66503,
        "name": "STARLINK-35917",
        "group": "last-30-days",
        "lat": -13.979273561957436,
        "lon": 155.63892909022346,
        "alt_km": 373.2579370207768,
        "timestamp": "2025-12-04T21:36:14.652341+00:00",
        "meta_object_name": "STARLINK-35917",
        "meta_object_id": "2025-263U",
        "meta_epoch": "2025-12-04T14:00:01.000224",
        "meta_mean_motion": 15.66776021,
        "meta_eccentricity": 0.00016475,
        "meta_inclination": 42.9989,
        "meta_ra_of_asc_node": 173.0316,
        "meta_arg_of_pericenter": 263.7801,
        "meta_mean_anomaly": 87.1527,
        "meta_ephemeris_type": 0,
        "meta_classification_type": "U",
        "meta_norad_cat_id": 66503,
        "meta_element_set_no": 999,
        "meta_rev_at_epoch": 432,
        "meta_bstar": -0.021075696,
        "meta_mean_motion_dot": -0.02011641,
        "meta_mean_motion_ddot": 0,
        "tle_line1": "1 66503U 25263U   25338.58334491 -.02011641  00000+0 -21076-1 0  9999",
        "tle_line2": "2 66503  42.9989 173.0316 0001647 263.7801  87.1527 15.66776021  4329"
      },
      "geometry": {
        "type": "Point",
        "coordinates": [
          155.63892909022346,
          -13.979273561957436
        ]
      }
    },
    {
      "type": "Feature",
      "properties": {
        "norad_id": 66504,
        "name": "STARLINK-35916",
        "group": "last-30-days",
        "lat": 25.8087151796519,
        "lon": -156.86019784141894,
        "alt_km": 415.4343977180988,
        "timestamp": "2025-12-04T21:36:14.652353+00:00",
        "meta_object_name": "STARLINK-35916",
        "meta_object_id": "2025-263V",
        "meta_epoch": "2025-12-04T14:00:01.000224",
        "meta_mean_motion": 15.50729994,
        "meta_eccentricity": 0.00017734,
        "meta_inclination": 42.9989,
        "meta_ra_of_asc_node": 173.727,
        "meta_arg_of_pericenter": 273.1586,
        "meta_mean_anomaly": 156.5447,
        "meta_ephemeris_type": 0,
        "meta_classification_type": "U",
        "meta_norad_cat_id": 66504,
        "meta_element_set_no": 999,
        "meta_rev_at_epoch": 432,
        "meta_bstar": -0.038293017,
        "meta_mean_motion_dot": -0.0201608,
        "meta_mean_motion_ddot": 0,
        "tle_line1": "1 66504U 25263V   25338.58334491 -.02016080  00000+0 -38293-1 0  9991",
        "tle_line2": "2 66504  42.9989 173.7270 0001773 273.1586 156.5447 15.50729994  4323"
      },
      "geometry": {
        "type": "Point",
        "coordinates": [
          -156.86019784141894,
          25.8087151796519
        ]
      }
    },
    {
      "type": "Feature",
      "properties": {
        "norad_id": 66505,
        "name": "STARLINK-34766",
        "group": "last-30-days",
        "lat": -18.931469884143297,
        "lon": 149.55538835000908,
        "alt_km": 373.6813572963247,
        "timestamp": "2025-12-04T21:36:14.652365+00:00",
        "meta_object_name": "STARLINK-34766",
        "meta_object_id": "2025-263W",
        "meta_epoch": "2025-12-04T14:00:01.000224",
        "meta_mean_motion": 15.66776264,
        "meta_eccentricity": 0.0001683,
        "meta_inclination": 42.9991,
        "meta_ra_of_asc_node": 173.0504,
        "meta_arg_of_pericenter": 258.3866,
        "meta_mean_anomaly": 84.8772,
        "meta_ephemeris_type": 0,
        "meta_classification_type": "U",
        "meta_norad_cat_id": 66505,
        "meta_element_set_no": 999,
        "meta_rev_at_epoch": 432,
        "meta_bstar": -0.021082511,
        "meta_mean_motion_dot": -0.02012258,
        "meta_mean_motion_ddot": 0,
        "tle_line1": "1 66505U 25263W   25338.58334491 -.02012258  00000+0 -21083-1 0  9994",
        "tle_line2": "2 66505  42.9991 173.0504 0001683 258.3866  84.8772 15.66776264  4329"
      },
      "geometry": {
        "type": "Point",
        "coordinates": [
          149.55538835000908,
          -18.931469884143297
        ]
      }
    },
    {
      "type": "Feature",
      "properties": {
        "norad_id": 66506,
        "name": "STARLINK-34765",
        "group": "last-30-days",
        "lat": -17.710391857853146,
        "lon": 151.10703652167618,
        "alt_km": 373.61611593398993,
        "timestamp": "2025-12-04T21:36:14.652375+00:00",
        "meta_object_name": "STARLINK-34765",
        "meta_object_id": "2025-263X",
        "meta_epoch": "2025-12-04T14:00:01.000224",
        "meta_mean_motion": 15.66778288,
        "meta_eccentricity": 0.00016365,
        "meta_inclination": 42.999,
        "meta_ra_of_asc_node": 173.0463,
        "meta_arg_of_pericenter": 258.7531,
        "meta_mean_anomaly": 86.4276,
        "meta_ephemeris_type": 0,
        "meta_classification_type": "U",
        "meta_norad_cat_id": 66506,
        "meta_element_set_no": 999,
        "meta_rev_at_epoch": 432,
        "meta_bstar": -0.021117876,
        "meta_mean_motion_dot": -0.0201533,
        "meta_mean_motion_ddot": 0,
        "tle_line1": "1 66506U 25263X   25338.58334491 -.02015330  00000+0 -21118-1 0  9998",
        "tle_line2": "2 66506  42.9990 173.0463 0001636 258.7531  86.4276 15.66778288  4329"
      },
      "geometry": {
        "type": "Point",
        "coordinates": [
          151.10703652167618,
          -17.710391857853146
        ]
      }
    },
    {
      "type": "Feature",
      "properties": {
        "norad_id": 66507,
        "name": "STARLINK-34767",
        "group": "last-30-days",
        "lat": -15.23340149383195,
        "lon": 154.14583098022624,
        "alt_km": 373.3735131944941,
        "timestamp": "2025-12-04T21:36:14.652385+00:00",
        "meta_object_name": "STARLINK-34767",
        "meta_object_id": "2025-263Y",
        "meta_epoch": "2025-12-04T14:00:01.000224",
        "meta_mean_motion": 15.66775708,
        "meta_eccentricity": 0.00016908,
        "meta_inclination": 42.9989,
        "meta_ra_of_asc_node": 173.0357,
        "meta_arg_of_pericenter": 261.9789,
        "meta_mean_anomaly": 87.0362,
        "meta_ephemeris_type": 0,
        "meta_classification_type": "U",
        "meta_norad_cat_id": 66507,
        "meta_element_set_no": 999,
        "meta_rev_at_epoch": 432,
        "meta_bstar": -0.021063509,
        "meta_mean_motion_dot": -0.02010632,
        "meta_mean_motion_ddot": 0,
        "tle_line1": "1 66507U 25263Y   25338.58334491 -.02010632  00000+0 -21064-1 0  9999",
        "tle_line2": "2 66507  42.9989 173.0357 0001690 261.9789  87.0362 15.66775708  4328"
      },
      "geometry": {
        "type": "Point",
        "coordinates": [
          154.14583098022624,
          -15.23340149383195
        ]
      }
    }
  ]
}